CCSDS_OMM_VERS = 2.0
CREATION_DATE  = 
ORIGINATOR     = 

OBJECT_NAME    = UNKNOWN
OBJECT_ID      = 
CENTER_NAME    = EARTH
REF_FRAME      = TEME
TIME_SYSTEM    = UTC
MEAN_ELEMENT_THEORY = SGP/SGP4

EPOCH          = 2026-04-05T15:21:17.395488
MEAN_MOTION    = 13.71386688
ECCENTRICITY   = .0147995
INCLINATION    = 66.7373
RA_OF_ASC_NODE = 188.8326
ARG_OF_PERICENTER = 84.2223
MEAN_ANOMALY   = 277.5696

EPHEMERIS_TYPE = 0
CLASSIFICATION_TYPE = U
NORAD_CAT_ID   = 87681
ELEMENT_SET_NO = 999
REV_AT_EPOCH   = 61745
BSTAR          = .10946E-2
MEAN_MOTION_DOT = .991E-5
MEAN_MOTION_DDOT = 0

CCSDS_OMM_VERS = 2.0
CREATION_DATE  = 
ORIGINATOR     = 

OBJECT_NAME    = UNKNOWN
OBJECT_ID      = 
CENTER_NAME    = EARTH
REF_FRAME      = TEME
TIME_SYSTEM    = UTC
MEAN_ELEMENT_THEORY = SGP/SGP4

EPOCH          = 2026-04-05T08:04:37.899264
MEAN_MOTION    = 14.01991467
ECCENTRICITY   = .0582434
INCLINATION    = 65.7929
RA_OF_ASC_NODE = 58.2965
ARG_OF_PERICENTER = 349.3478
MEAN_ANOMALY   = 9.5676

EPHEMERIS_TYPE = 0
CLASSIFICATION_TYPE = U
NORAD_CAT_ID   = 87690
ELEMENT_SET_NO = 999
REV_AT_EPOCH   = 62329
BSTAR          = .19135E-2
MEAN_MOTION_DOT = .13619E-3
MEAN_MOTION_DDOT = 0

CCSDS_OMM_VERS = 2.0
CREATION_DATE  = 
ORIGINATOR     = 

OBJECT_NAME    = UNKNOWN
OBJECT_ID      = 
CENTER_NAME    = EARTH
REF_FRAME      = TEME
TIME_SYSTEM    = UTC
MEAN_ELEMENT_THEORY = SGP/SGP4

EPOCH          = 2026-04-05T07:13:05.600928
MEAN_MOTION    = 14.65511438
ECCENTRICITY   = .0102116
INCLINATION    = 98.6751
RA_OF_ASC_NODE = 290.0907
ARG_OF_PERICENTER = 275.4347
MEAN_ANOMALY   = 266.9608

EPHEMERIS_TYPE = 0
CLASSIFICATION_TYPE = U
NORAD_CAT_ID   = 87706
ELEMENT_SET_NO = 999
REV_AT_EPOCH   = 59514
BSTAR          = .81504E-3
MEAN_MOTION_DOT = .4712E-4
MEAN_MOTION_DDOT = 0

CCSDS_OMM_VERS = 2.0
CREATION_DATE  = 
ORIGINATOR     = 

OBJECT_NAME    = UNKNOWN
OBJECT_ID      = 
CENTER_NAME    = EARTH
REF_FRAME      = TEME
TIME_SYSTEM    = UTC
MEAN_ELEMENT_THEORY = SGP/SGP4

EPOCH          = 2026-04-05T13:50:55.703040
MEAN_MOTION    = 15.14643834
ECCENTRICITY   = .0003973
INCLINATION    = 82.8664
RA_OF_ASC_NODE = 150.7100
ARG_OF_PERICENTER = 80.5144
MEAN_ANOMALY   = 279.6538

EPHEMERIS_TYPE = 0
CLASSIFICATION_TYPE = U
NORAD_CAT_ID   = 87725
ELEMENT_SET_NO = 999
REV_AT_EPOCH   = 65104
BSTAR          = .41619E-2
MEAN_MOTION_DOT = .7767E-3
MEAN_MOTION_DDOT = 0

CCSDS_OMM_VERS = 2.0
CREATION_DATE  = 
ORIGINATOR     = 

OBJECT_NAME    = UNKNOWN
OBJECT_ID      = 
CENTER_NAME    = EARTH
REF_FRAME      = TEME
TIME_SYSTEM    = UTC
MEAN_ELEMENT_THEORY = SGP/SGP4

EPOCH          = 2026-04-05T10:32:42.495936
MEAN_MOTION    = 13.74526304
ECCENTRICITY   = .0030984
INCLINATION    = 82.9456
RA_OF_ASC_NODE = 149.9994
ARG_OF_PERICENTER = 49.2813
MEAN_ANOMALY   = 311.1026

EPHEMERIS_TYPE = 0
CLASSIFICATION_TYPE = U
NORAD_CAT_ID   = 87730
ELEMENT_SET_NO = 999
REV_AT_EPOCH   = 60095
BSTAR          = .98082E-4
MEAN_MOTION_DOT = .108E-5
MEAN_MOTION_DDOT = 0

CCSDS_OMM_VERS = 2.0
CREATION_DATE  = 
ORIGINATOR     = 

OBJECT_NAME    = UNKNOWN
OBJECT_ID      = 
CENTER_NAME    = EARTH
REF_FRAME      = TEME
TIME_SYSTEM    = UTC
MEAN_ELEMENT_THEORY = SGP/SGP4

EPOCH          = 2026-04-01T22:28:16.618080
MEAN_MOTION    = 13.72360910
ECCENTRICITY   = .0132237
INCLINATION    = 99.3613
RA_OF_ASC_NODE = 326.2745
ARG_OF_PERICENTER = 262.3891
MEAN_ANOMALY   = 96.2221

EPHEMERIS_TYPE = 0
CLASSIFICATION_TYPE = U
NORAD_CAT_ID   = 87737
ELEMENT_SET_NO = 999
REV_AT_EPOCH   = 61897
BSTAR          = .91292E-4
MEAN_MOTION_DOT = .44E-6
MEAN_MOTION_DDOT = 0

CCSDS_OMM_VERS = 2.0
CREATION_DATE  = 
ORIGINATOR     = 

OBJECT_NAME    = UNKNOWN
OBJECT_ID      = 
CENTER_NAME    = EARTH
REF_FRAME      = TEME
TIME_SYSTEM    = UTC
MEAN_ELEMENT_THEORY = SGP/SGP4

EPOCH          = 2026-04-05T02:14:18.456288
MEAN_MOTION    = 14.36924904
ECCENTRICITY   = .0360324
INCLINATION    = 65.6711
RA_OF_ASC_NODE = 209.9099
ARG_OF_PERICENTER = 17.4773
MEAN_ANOMALY   = 162.6859

EPHEMERIS_TYPE = 0
CLASSIFICATION_TYPE = U
NORAD_CAT_ID   = 87764
ELEMENT_SET_NO = 999
REV_AT_EPOCH   = 63539
BSTAR          = .13882E-2
MEAN_MOTION_DOT = .8641E-4
MEAN_MOTION_DDOT = 0

CCSDS_OMM_VERS = 2.0
CREATION_DATE  = 
ORIGINATOR     = 

OBJECT_NAME    = UNKNOWN
OBJECT_ID      = 
CENTER_NAME    = EARTH
REF_FRAME      = TEME
TIME_SYSTEM    = UTC
MEAN_ELEMENT_THEORY = SGP/SGP4

EPOCH          = 2026-04-05T08:16:23.439072
MEAN_MOTION    = 13.19550368
ECCENTRICITY   = .0120081
INCLINATION    = 100.7413
RA_OF_ASC_NODE = 298.9685
ARG_OF_PERICENTER = 104.8315
MEAN_ANOMALY   = 256.6135

EPHEMERIS_TYPE = 0
CLASSIFICATION_TYPE = U
NORAD_CAT_ID   = 87771
ELEMENT_SET_NO = 999
REV_AT_EPOCH   = 55007
BSTAR          = .36582E-3
MEAN_MOTION_DOT = .106E-5
MEAN_MOTION_DDOT = 0

CCSDS_OMM_VERS = 2.0
CREATION_DATE  = 
ORIGINATOR     = 

OBJECT_NAME    = UNKNOWN
OBJECT_ID      = 
CENTER_NAME    = EARTH
REF_FRAME      = TEME
TIME_SYSTEM    = UTC
MEAN_ELEMENT_THEORY = SGP/SGP4

EPOCH          = 2026-04-05T10:37:59.777472
MEAN_MOTION    = 13.01147353
ECCENTRICITY   = .0063639
INCLINATION    = 102.3834
RA_OF_ASC_NODE = 347.2664
ARG_OF_PERICENTER = 355.0735
MEAN_ANOMALY   = 4.9729

EPHEMERIS_TYPE = 0
CLASSIFICATION_TYPE = U
NORAD_CAT_ID   = 87782
ELEMENT_SET_NO = 999
REV_AT_EPOCH   = 58277
BSTAR          = .12599E-1
MEAN_MOTION_DOT = .3838E-4
MEAN_MOTION_DDOT = 0

CCSDS_OMM_VERS = 2.0
CREATION_DATE  = 
ORIGINATOR     = 

OBJECT_NAME    = UNKNOWN
OBJECT_ID      = 
CENTER_NAME    = EARTH
REF_FRAME      = TEME
TIME_SYSTEM    = UTC
MEAN_ELEMENT_THEORY = SGP/SGP4

EPOCH          = 2026-04-01T05:59:51.823968
MEAN_MOTION    = 13.17039538
ECCENTRICITY   = .0242007
INCLINATION    = 99.6578
RA_OF_ASC_NODE = 201.1932
ARG_OF_PERICENTER = 110.2053
MEAN_ANOMALY   = 252.5263

EPHEMERIS_TYPE = 0
CLASSIFICATION_TYPE = U
NORAD_CAT_ID   = 87843
ELEMENT_SET_NO = 999
REV_AT_EPOCH   = 57857
BSTAR          = .26232E-2
MEAN_MOTION_DOT = .1136E-4
MEAN_MOTION_DDOT = 0

CCSDS_OMM_VERS = 2.0
CREATION_DATE  = 
ORIGINATOR     = 

OBJECT_NAME    = UNKNOWN
OBJECT_ID      = 
CENTER_NAME    = EARTH
REF_FRAME      = TEME
TIME_SYSTEM    = UTC
MEAN_ELEMENT_THEORY = SGP/SGP4

EPOCH          = 2026-04-04T18:22:11.325504
MEAN_MOTION    = 12.89488825
ECCENTRICITY   = .0579448
INCLINATION    = 98.8740
RA_OF_ASC_NODE = 35.1926
ARG_OF_PERICENTER = 353.5817
MEAN_ANOMALY   = 5.8088

EPHEMERIS_TYPE = 0
CLASSIFICATION_TYPE = U
NORAD_CAT_ID   = 87845
ELEMENT_SET_NO = 999
REV_AT_EPOCH   = 57977
BSTAR          = .82963E-2
MEAN_MOTION_DOT = .4503E-4
MEAN_MOTION_DDOT = 0

CCSDS_OMM_VERS = 2.0
CREATION_DATE  = 
ORIGINATOR     = 

OBJECT_NAME    = UNKNOWN
OBJECT_ID      = 
CENTER_NAME    = EARTH
REF_FRAME      = TEME
TIME_SYSTEM    = UTC
MEAN_ELEMENT_THEORY = SGP/SGP4

EPOCH          = 2026-04-05T01:50:05.064864
MEAN_MOTION    = 14.41700942
ECCENTRICITY   = .0033566
INCLINATION    = 99.1653
RA_OF_ASC_NODE = 227.6383
ARG_OF_PERICENTER = 291.7552
MEAN_ANOMALY   = 68.0064

EPHEMERIS_TYPE = 0
CLASSIFICATION_TYPE = U
NORAD_CAT_ID   = 87878
ELEMENT_SET_NO = 999
REV_AT_EPOCH   = 62762
BSTAR          = .14009E-2
MEAN_MOTION_DOT = .4551E-4
MEAN_MOTION_DDOT = 0

