{"fetched_at":"2026-04-06T20:40:46Z","count":16190,"tles":[{"name":"UNKNOWN","line1":"1 87764U          26095.09326917  .00008641  00000+0  13882-2 0  9993","line2":"2 87764  65.6711 209.9099 0360324  17.4773 162.6859 14.36924904635390","category":"Other"},{"name":"UNKNOWN","line1":"1 87681U          26095.63978467  .00000991  00000+0  10946-2 0  9992","line2":"2 87681  66.7373 188.8326 0147995  84.2223 277.5696 13.71386688617452","category":"Other"},{"name":"UNKNOWN","line1":"1 87771U          26095.34471573  .00000106  00000+0  36582-3 0  9999","line2":"2 87771 100.7413 298.9685 0120081 104.8315 256.6135 13.19550368550075","category":"Other"},{"name":"UNKNOWN","line1":"1 87782U          26095.44305298  .00003838  00000+0  12599-1 0  9997","line2":"2 87782 102.3834 347.2664 0063639 355.0735   4.9729 13.01147353582770","category":"Other"},{"name":"UNKNOWN","line1":"1 87843U          26091.24990537  .00001136  00000+0  26232-2 0  9994","line2":"2 87843  99.6578 201.1932 0242007 110.2053 252.5263 13.17039538578578","category":"Other"},{"name":"UNKNOWN","line1":"1 87845U          26094.76540886  .00004503  00000+0  82963-2 0  9998","line2":"2 87845  98.8740  35.1926 0579448 353.5817   5.8088 12.89488825579774","category":"Other"},{"name":"UNKNOWN","line1":"1 87878U          26095.07644751  .00004551  00000+0  14009-2 0  9994","line2":"2 87878  99.1653 227.6383 0033566 291.7552  68.0064 14.41700942627627","category":"Other"},{"name":"UNKNOWN","line1":"1 87690U          26095.33654976  .00013619  00000+0  19135-2 0  9995","line2":"2 87690  65.7929  58.2965 0582434 349.3478   9.5676 14.01991467623296","category":"Other"},{"name":"UNKNOWN","line1":"1 87706U          26095.30075927  .00004712  00000+0  81504-3 0  9997","line2":"2 87706  98.6751 290.0907 0102116 275.4347 266.9608 14.65511438595145","category":"Other"},{"name":"UNKNOWN","line1":"1 87725U          26095.57703360  .00077670  00000+0  41619-2 0  9991","line2":"2 87725  82.8664 150.7100 0003973  80.5144 279.6538 15.14643834651048","category":"Other"},{"name":"UNKNOWN","line1":"1 87730U          26095.43938074  .00000108  00000+0  98082-4 0  9994","line2":"2 87730  82.9456 149.9994 0030984  49.2813 311.1026 13.74526304600956","category":"Other"},{"name":"UNKNOWN","line1":"1 87737U          26091.93630345  .00000044  00000+0  91292-4 0  9997","line2":"2 87737  99.3613 326.2745 0132237 262.3891  96.2221 13.72360910618978","category":"Other"}]}